LANDSAT 9               
1 49260U 21088A   24036.15855577  .00000563  00000+0  13503-3 0  9996
2 49260  98.2036 107.9416 0000967 103.9359 256.1947 14.57110128125317
